[{"OBJECT_NAME":"ONEWEB-0430","OBJECT_ID":"2021-132AJ","EPOCH":"2026-03-09T18:39:06.714720","MEAN_MOTION":13.186875,"ECCENTRICITY":0.00020535,"INCLINATION":87.9252,"RA_OF_ASC_NODE":355.2041,"ARG_OF_PERICENTER":80.6494,"MEAN_ANOMALY":279.487,"EPHEMERIS_TYPE":0,"CLASSIFICATION_TYPE":"U","NORAD_CAT_ID":50501,"ELEMENT_SET_NO":999,"REV_AT_EPOCH":20852,"BSTAR":0.0001231899,"MEAN_MOTION_DOT":6.1e-7,"MEAN_MOTION_DDOT":0},{"OBJECT_NAME":"METEOR 3-5","OBJECT_ID":"1991-056A","EPOCH":"2026-03-09T21:56:34.066752","MEAN_MOTION":13.17156023,"ECCENTRICITY":0.00136387,"INCLINATION":82.5569,"RA_OF_ASC_NODE":209.4978,"ARG_OF_PERICENTER":30.0209,"MEAN_ANOMALY":330.1692,"EPHEMERIS_TYPE":0,"CLASSIFICATION_TYPE":"U","NORAD_CAT_ID":21655,"ELEMENT_SET_NO":999,"REV_AT_EPOCH":66150,"BSTAR":0.00042950238,"MEAN_MOTION_DOT":1.78e-6,"MEAN_MOTION_DDOT":0}]
